{"type": "FeatureCollection", "features": [{"type": "Feature", "properties": {"norad_id": 24946, "name": "IRIDIUM 33", "group": "iridium-33-debris", "lat": 39.48658711007188, "lon": -111.59909202907772, "alt_km": 771.9619263463846, "timestamp": "2025-12-05T04:52:15.675315+00:00", "meta": {"OBJECT_NAME": "IRIDIUM 33", "OBJECT_ID": "1997-051C", "EPOCH": "2025-12-04T16:30:14.912640", "MEAN_MOTION": 14.3502848, "ECCENTRICITY": 0.0006229, "INCLINATION": 86.3872, "RA_OF_ASC_NODE": 71.6011, "ARG_OF_PERICENTER": 231.2861, "MEAN_ANOMALY": 128.7778, "EPHEMERIS_TYPE": 0, "CLASSIFICATION_TYPE": "U", "NORAD_CAT_ID": 24946, "ELEMENT_SET_NO": 999, "REV_AT_EPOCH": 47719, "BSTAR": 0.00024305, "MEAN_MOTION_DOT": 7.12e-06, "MEAN_MOTION_DDOT": 0}, "tle": {"line1": "1 24946U 97051C   25338.68767260  .00000712  00000+0  24305-3 0  9996", "line2": "2 24946  86.3872  71.6011 0006229 231.2861 128.7778 14.35028480477192"}}, "geometry": {"type": "Point", "coordinates": [-111.59909202907772, 39.48658711007188]}}, {"type": "Feature", "properties": {"norad_id": 33773, "name": "IRIDIUM 33 DEB", "group": "iridium-33-debris", "lat": -54.981242627531095, "lon": -111.0644145392997, "alt_km": 751.5340442580573, "timestamp": "2025-12-05T04:52:15.675361+00:00", "meta": {"OBJECT_NAME": "IRIDIUM 33 DEB", "OBJECT_ID": "1997-051L", "EPOCH": "2025-12-04T16:08:15.792864", "MEAN_MOTION": 14.43229682, "ECCENTRICITY": 0.0011623, "INCLINATION": 86.4014, "RA_OF_ASC_NODE": 64.0075, "ARG_OF_PERICENTER": 171.2195, "MEAN_ANOMALY": 188.9211, "EPHEMERIS_TYPE": 0, "CLASSIFICATION_TYPE": "U", "NORAD_CAT_ID": 33773, "ELEMENT_SET_NO": 999, "REV_AT_EPOCH": 88231, "BSTAR": 0.00065225, "MEAN_MOTION_DOT": 2.214e-05, "MEAN_MOTION_DDOT": 0}, "tle": {"line1": "1 33773U 97051L   25338.67240501  .00002214  00000+0  65225-3 0  9992", "line2": "2 33773  86.4014  64.0075 0011623 171.2195 188.9211 14.43229682882312"}}, "geometry": {"type": "Point", "coordinates": [-111.0644145392997, -54.981242627531095]}}, {"type": "Feature", "properties": {"norad_id": 33775, "name": "IRIDIUM 33 DEB", "group": "iridium-33-debris", "lat": 6.743629841547855, "lon": 53.201502528499375, "alt_km": 765.2950098599067, "timestamp": "2025-12-05T04:52:15.675376+00:00", "meta": {"OBJECT_NAME": "IRIDIUM 33 DEB", "OBJECT_ID": "1997-051N", "EPOCH": "2025-12-04T16:04:16.698144", "MEAN_MOTION": 14.41441459, "ECCENTRICITY": 0.0013354, "INCLINATION": 86.3643, "RA_OF_ASC_NODE": 52.9983, "ARG_OF_PERICENTER": 180.2166, "MEAN_ANOMALY": 300.9326, "EPHEMERIS_TYPE": 0, "CLASSIFICATION_TYPE": "U", "NORAD_CAT_ID": 33775, "ELEMENT_SET_NO": 999, "REV_AT_EPOCH": 88024, "BSTAR": 0.00065635, "MEAN_MOTION_DOT": 2.149e-05, "MEAN_MOTION_DDOT": 0}, "tle": {"line1": "1 33775U 97051N   25338.66963771  .00002149  00000+0  65635-3 0  9996", "line2": "2 33775  86.3643  52.9983 0013354 180.2166 300.9326 14.41441459880245"}}, "geometry": {"type": "Point", "coordinates": [53.201502528499375, 6.743629841547855]}}, {"type": "Feature", "properties": {"norad_id": 33776, "name": "IRIDIUM 33 DEB", "group": "iridium-33-debris", "lat": -35.72190245409049, "lon": 81.34835551052001, "alt_km": 773.7143143833819, "timestamp": "2025-12-05T04:52:15.675388+00:00", "meta": {"OBJECT_NAME": "IRIDIUM 33 DEB", "OBJECT_ID": "1997-051P", "EPOCH": "2025-12-04T14:03:40.177152", "MEAN_MOTION": 14.38210253, "ECCENTRICITY": 0.0013468, "INCLINATION": 86.4037, "RA_OF_ASC_NODE": 84.1997, "ARG_OF_PERICENTER": 218.542, "MEAN_ANOMALY": 152.6812, "EPHEMERIS_TYPE": 0, "CLASSIFICATION_TYPE": "U", "NORAD_CAT_ID": 33776, "ELEMENT_SET_NO": 999, "REV_AT_EPOCH": 87965, "BSTAR": 0.00057275, "MEAN_MOTION_DOT": 1.76e-05, "MEAN_MOTION_DDOT": 0}, "tle": {"line1": "1 33776U 97051P   25338.58588168  .00001760  00000+0  57275-3 0  9990", "line2": "2 33776  86.4037  84.1997 0013468 218.5420 152.6812 14.38210253879657"}}, "geometry": {"type": "Point", "coordinates": [81.34835551052001, -35.72190245409049]}}, {"type": "Feature", "properties": {"norad_id": 33777, "name": "IRIDIUM 33 DEB", "group": "iridium-33-debris", "lat": 1.8130798911451473, "lon": 38.59684208051149, "alt_km": 709.652753503542, "timestamp": "2025-12-05T04:52:15.675400+00:00", "meta": {"OBJECT_NAME": "IRIDIUM 33 DEB", "OBJECT_ID": "1997-051Q", "EPOCH": "2025-12-04T15:39:47.047104", "MEAN_MOTION": 14.55518436, "ECCENTRICITY": 0.000511, "INCLINATION": 86.3797, "RA_OF_ASC_NODE": 38.7212, "ARG_OF_PERICENTER": 287.0906, "MEAN_ANOMALY": 72.9742, "EPHEMERIS_TYPE": 0, "CLASSIFICATION_TYPE": "U", "NORAD_CAT_ID": 33777, "ELEMENT_SET_NO": 999, "REV_AT_EPOCH": 88416, "BSTAR": 0.0022811, "MEAN_MOTION_DOT": 9.958e-05, "MEAN_MOTION_DDOT": 0}, "tle": {"line1": "1 33777U 97051Q   25338.65262786  .00009958  00000+0  22811-2 0  9998", "line2": "2 33777  86.3797  38.7212 0005110 287.0906  72.9742 14.55518436884161"}}, "geometry": {"type": "Point", "coordinates": [38.59684208051149, 1.8130798911451473]}}, {"type": "Feature", "properties": {"norad_id": 33850, "name": "IRIDIUM 33 DEB", "group": "iridium-33-debris", "lat": -30.56026170062603, "lon": 31.256119592275425, "alt_km": 764.2245720678002, "timestamp": "2025-12-05T04:52:15.675411+00:00", "meta": {"OBJECT_NAME": "IRIDIUM 33 DEB", "OBJECT_ID": "1997-051T", "EPOCH": "2025-12-04T16:15:08.415072", "MEAN_MOTION": 14.42120572, "ECCENTRICITY": 0.001141, "INCLINATION": 86.3427, "RA_OF_ASC_NODE": 33.6464, "ARG_OF_PERICENTER": 186.1816, "MEAN_ANOMALY": 295.3072, "EPHEMERIS_TYPE": 0, "CLASSIFICATION_TYPE": "U", "NORAD_CAT_ID": 33850, "ELEMENT_SET_NO": 999, "REV_AT_EPOCH": 88036, "BSTAR": 0.00086956, "MEAN_MOTION_DOT": 2.88e-05, "MEAN_MOTION_DDOT": 0}, "tle": {"line1": "1 33850U 97051T   25338.67718073  .00002880  00000+0  86956-3 0  9995", "line2": "2 33850  86.3427  33.6464 0011410 186.1816 295.3072 14.42120572880366"}}, "geometry": {"type": "Point", "coordinates": [31.256119592275425, -30.56026170062603]}}, {"type": "Feature", "properties": {"norad_id": 33853, "name": "IRIDIUM 33 DEB", "group": "iridium-33-debris", "lat": 79.46956144688123, "lon": 15.227258463714998, "alt_km": 1040.4495843205086, "timestamp": "2025-12-05T04:52:15.675421+00:00", "meta": {"OBJECT_NAME": "IRIDIUM 33 DEB", "OBJECT_ID": "1997-051W", "EPOCH": "2025-12-04T01:16:34.217184", "MEAN_MOTION": 13.98972091, "ECCENTRICITY": 0.02067962, "INCLINATION": 86.0003, "RA_OF_ASC_NODE": 353.6212, "ARG_OF_PERICENTER": 262.6777, "MEAN_ANOMALY": 150.4676, "EPHEMERIS_TYPE": 0, "CLASSIFICATION_TYPE": "U", "NORAD_CAT_ID": 33853, "ELEMENT_SET_NO": 999, "REV_AT_EPOCH": 85224, "BSTAR": 0.0041696417, "MEAN_MOTION_DOT": 7.249e-05, "MEAN_MOTION_DDOT": 0}, "tle": {"line1": "1 33853U 97051W   25338.05317381  .00007249  00000+0  41696-2 0  9992", "line2": "2 33853  86.0003 353.6212 0206796 262.6777 150.4676 13.98972091852249"}}, "geometry": {"type": "Point", "coordinates": [15.227258463714998, 79.46956144688123]}}, {"type": "Feature", "properties": {"norad_id": 33860, "name": "IRIDIUM 33 DEB", "group": "iridium-33-debris", "lat": -58.28163355158529, "lon": 24.702387089266335, "alt_km": 676.2073332370055, "timestamp": "2025-12-05T04:52:15.675432+00:00", "meta": {"OBJECT_NAME": "IRIDIUM 33 DEB", "OBJECT_ID": "1997-051AD", "EPOCH": "2025-12-04T15:05:54.621024", "MEAN_MOTION": 14.67202229, "ECCENTRICITY": 0.000847, "INCLINATION": 86.3845, "RA_OF_ASC_NODE": 30.8279, "ARG_OF_PERICENTER": 24.4738, "MEAN_ANOMALY": 128.1182, "EPHEMERIS_TYPE": 0, "CLASSIFICATION_TYPE": "U", "NORAD_CAT_ID": 33860, "ELEMENT_SET_NO": 999, "REV_AT_EPOCH": 88603, "BSTAR": 0.0030619, "MEAN_MOTION_DOT": 0.00017288, "MEAN_MOTION_DDOT": 0}, "tle": {"line1": "1 33860U 97051AD  25338.62910441  .00017288  00000+0  30619-2 0  9996", "line2": "2 33860  86.3845  30.8279 0008470  24.4738 128.1182 14.67202229886035"}}, "geometry": {"type": "Point", "coordinates": [24.702387089266335, -58.28163355158529]}}, {"type": "Feature", "properties": {"norad_id": 33862, "name": "IRIDIUM 33 DEB", "group": "iridium-33-debris", "lat": -79.08303407161651, "lon": 21.85759055229643, "alt_km": 708.5299530530428, "timestamp": "2025-12-05T04:52:15.675442+00:00", "meta": {"OBJECT_NAME": "IRIDIUM 33 DEB", "OBJECT_ID": "1997-051AF", "EPOCH": "2025-12-04T16:42:30.042720", "MEAN_MOTION": 14.69271517, "ECCENTRICITY": 0.0053935, "INCLINATION": 86.41, "RA_OF_ASC_NODE": 41.0767, "ARG_OF_PERICENTER": 95.9978, "MEAN_ANOMALY": 25.5972, "EPHEMERIS_TYPE": 0, "CLASSIFICATION_TYPE": "U", "NORAD_CAT_ID": 33862, "ELEMENT_SET_NO": 999, "REV_AT_EPOCH": 88705, "BSTAR": 0.0035031, "MEAN_MOTION_DOT": 0.00021187, "MEAN_MOTION_DDOT": 0}, "tle": {"line1": "1 33862U 97051AF  25338.69618105  .00021187  00000+0  35031-2 0  9993", "line2": "2 33862  86.4100  41.0767 0053935  95.9978  25.5972 14.69271517887051"}}, "geometry": {"type": "Point", "coordinates": [21.85759055229643, -79.08303407161651]}}, {"type": "Feature", "properties": {"norad_id": 33866, "name": "IRIDIUM 33 DEB", "group": "iridium-33-debris", "lat": 79.48965411673814, "lon": -104.18849540118349, "alt_km": 793.1922766516191, "timestamp": "2025-12-05T04:52:15.675451+00:00", "meta": {"OBJECT_NAME": "IRIDIUM 33 DEB", "OBJECT_ID": "1997-051AK", "EPOCH": "2025-12-04T14:58:37.870752", "MEAN_MOTION": 14.25229782, "ECCENTRICITY": 0.0113814, "INCLINATION": 86.3001, "RA_OF_ASC_NODE": 96.4688, "ARG_OF_PERICENTER": 187.2582, "MEAN_ANOMALY": 185.4361, "EPHEMERIS_TYPE": 0, "CLASSIFICATION_TYPE": "U", "NORAD_CAT_ID": 33866, "ELEMENT_SET_NO": 999, "REV_AT_EPOCH": 86695, "BSTAR": 0.0014526, "MEAN_MOTION_DOT": 3.671e-05, "MEAN_MOTION_DDOT": 0}, "tle": {"line1": "1 33866U 97051AK  25338.62404943  .00003671  00000+0  14526-2 0  9997", "line2": "2 33866  86.3001  96.4688 0113814 187.2582 185.4361 14.25229782866952"}}, "geometry": {"type": "Point", "coordinates": [-104.18849540118349, 79.48965411673814]}}]}